STARLINK-30999
1 58551U 23192W   25334.93113111  .00000338  00000+0  23537-4 0  9995
2 58551  53.1597 151.4996 0001158 100.1013 260.0118 15.30194454111009